{
    "links": {
        "self": "http://www.neowsapp.com/rest/v1/neo/54087808?api_key=iIulBulltgU6a56xZRHN4H3l9WmuAYTsLGpBGhQ2"
    },
    "id": "54087808",
    "neo_reference_id": "54087808",
    "name": "(2020 VS4)",
    "designation": "2020 VS4",
    "nasa_jpl_url": "http://ssd.jpl.nasa.gov/sbdb.cgi?sstr=54087808",
    "absolute_magnitude_h": 26.86,
    "estimated_diameter": {
        "kilometers": {
            "estimated_diameter_min": 0.011286388,
            "estimated_diameter_max": 0.0252371308
        },
        "meters": {
            "estimated_diameter_min": 11.2863880097,
            "estimated_diameter_max": 25.2371308101
        },
        "miles": {
            "estimated_diameter_min": 0.0070130342,
            "estimated_diameter_max": 0.0156816212
        },
        "feet": {
            "estimated_diameter_min": 37.0288332377,
            "estimated_diameter_max": 82.798988247
        }
    },
    "is_potentially_hazardous_asteroid": false,
    "close_approach_data": [
        {
            "close_approach_date": "1995-03-02",
            "close_approach_date_full": "1995-Mar-02 08:06",
            "epoch_date_close_approach": 794131560000,
            "relative_velocity": {
                "kilometers_per_second": "4.8010919427",
                "kilometers_per_hour": "17283.9309936486",
                "miles_per_hour": "10739.5625665812"
            },
            "miss_distance": {
                "astronomical": "0.9270424678",
                "lunar": "360.6195199742",
                "kilometers": "138683578.582423586",
                "miles": "86173979.7905780468"
            },
            "orbiting_body": "Juptr"
        },
        {
            "close_approach_date": "2018-12-01",
            "close_approach_date_full": "2018-Dec-01 16:12",
            "epoch_date_close_approach": 1543680720000,
            "relative_velocity": {
                "kilometers_per_second": "5.1883043006",
                "kilometers_per_hour": "18677.8954821519",
                "miles_per_hour": "11605.7178900071"
            },
            "miss_distance": {
                "astronomical": "1.009775356",
                "lunar": "392.802613484",
                "kilometers": "151060242.43609172",
                "miles": "93864482.095916936"
            },
            "orbiting_body": "Juptr"
        },
        {
            "close_approach_date": "2020-11-17",
            "close_approach_date_full": "2020-Nov-17 02:50",
            "epoch_date_close_approach": 1605581400000,
            "relative_velocity": {
                "kilometers_per_second": "8.2748897121",
                "kilometers_per_hour": "29789.6029635262",
                "miles_per_hour": "18510.1007969755"
            },
            "miss_distance": {
                "astronomical": "0.0109737045",
                "lunar": "4.2687710505",
                "kilometers": "1641642.819209415",
                "miles": "1020069.546603327"
            },
            "orbiting_body": "Earth"
        },
        {
            "close_approach_date": "2125-10-04",
            "close_approach_date_full": "2125-Oct-04 23:22",
            "epoch_date_close_approach": 4915293720000,
            "relative_velocity": {
                "kilometers_per_second": "5.8883762891",
                "kilometers_per_hour": "21198.1546409054",
                "miles_per_hour": "13171.7089211781"
            },
            "miss_distance": {
                "astronomical": "1.1557738071",
                "lunar": "449.5960109619",
                "kilometers": "172901299.743950877",
                "miles": "107435885.7926690226"
            },
            "orbiting_body": "Juptr"
        }
    ],
    "orbital_data": {
        "orbit_id": "8",
        "orbit_determination_date": "2020-11-24 05:23:43",
        "first_observation_date": "2020-11-14",
        "last_observation_date": "2020-11-22",
        "data_arc_in_days": 8,
        "observations_used": 97,
        "orbit_uncertainty": "7",
        "minimum_orbit_intersection": ".0109958",
        "jupiter_tisserand_invariant": "2.987",
        "epoch_osculation": "2459000.5",
        "eccentricity": ".6430107347899182",
        "semi_major_axis": "2.787134191861248",
        "inclination": "1.784810044752595",
        "ascending_node_longitude": "45.65023750363822",
        "orbital_period": "1699.555086340047",
        "perihelion_distance": ".9949769871944422",
        "perihelion_argument": "17.10031753636705",
        "aphelion_distance": "4.579291396528054",
        "perihelion_time": "2459176.716381649041",
        "mean_anomaly": "322.6738209878994",
        "mean_motion": ".2118201421615887",
        "equinox": "J2000",
        "orbit_class": {
            "orbit_class_type": "APO",
            "orbit_class_description": "Near-Earth asteroid orbits which cross the Earth’s orbit similar to that of 1862 Apollo",
            "orbit_class_range": "a (semi-major axis) > 1.0 AU; q (perihelion) < 1.017 AU"
        }
    },
    "is_sentry_object": false
}